#aV2007  9 15  0  0   .00000000      96 DD+AD WGS84 FIT  NGA
## 1444 518400.00000000   900.00000000 54358  .0000000000000
+   31     1  2  3  4  5  6  7  8  9 10 11 12 13 14 16 17 18
+         19 20 21 22 23 24 25 26 27 28 29 30 31 32  0  0  0
+          0  0  0  0  0  0  0  0  0  0  0  0  0  0  0  0  0
+          0  0  0  0  0  0  0  0  0  0  0  0  0  0  0  0  0
+          0  0  0  0  0  0  0  0  0  0  0  0  0  0  0  0  0
++         0  0  0  0  0  0  0  0  0  0  0  0  0  0  0  0  0
++         0  0  0  0  0  0  0  0  0  0  0  0  0  0  0  0  0
++         0  0  0  0  0  0  0  0  0  0  0  0  0  0  0  0  0
++         0  0  0  0  0  0  0  0  0  0  0  0  0  0  0  0  0
++         0  0  0  0  0  0  0  0  0  0  0  0  0  0  0  0  0
%c cc cc ccc ccc cccc cccc cccc cccc ccccc ccccc ccccc ccccc
%c cc cc ccc ccc cccc cccc cccc cccc ccccc ccccc ccccc ccccc
%f  0.0000000  0.000000000  0.00000000000  0.000000000000000
%f  0.0000000  0.000000000  0.00000000000  0.000000000000000
%i    0    0    0    0      0      0      0      0         0
%i    0    0    0    0      0      0      0      0         0
/*      NGA, ST. LOUIS,MO.                                  
/*   EPHEMERIS COMPUTED FROM  3 DAYS OF DATA                
/* CCCCCCCCCCCCCCCCCCCCCCCCCCCCCCCCCCCCCCCCCCCCCCCCCCCCCCCCC
/* CCCCCCCCCCCCCCCCCCCCCCCCCCCCCCCCCCCCCCCCCCCCCCCCCCCCCCCCC
*  2007  9 15  0 15   .00000000                                                 
P  1  10707.651072  14773.227108  19538.379692    152.668910                    
V  1 -24055.835268  -3227.305873  15719.997337       .024910                    
P  2 -13168.555023 -22965.961583  -3855.300253    136.532182                    
V  2    861.524273  -5438.541096  30706.942788       .027772                    
P  3  19393.757022  11308.603471 -14674.974465    115.819498                    
V  3 -18246.819472   2278.876104 -22361.524481       .052546                    
P  4  -4525.798829 -24859.982851   7486.466752     -5.524851                    
V  4   6917.306413   7639.448306  29633.331541      -.029565                    
P  5 -19107.146380  11452.182866  14097.957211    388.812647                    
V  5   7294.022699 -17168.918682  23554.963085       .335752                    
P  6 -21252.263219   8323.705026 -13423.186135    245.656585                    
V  6 -17134.126123  -4204.547149  24154.438061      -.017906                    
P  7 -19853.201607   9651.572521 -14455.239363   -105.103903                    
V  7 -18835.167577  -3694.857839  22820.993528       .252850                    
P  8   2757.976596 -21499.187035 -15137.256931   -122.789107                    
V  8   8527.365906  17275.539161 -23596.511518      -.014418                    
P  9 -17323.483578  -6777.080818  18421.135554     87.718473                    
V  9  -9341.499821 -22789.953312 -16439.168753       .016708                    
P 10  -8948.823057 -12726.390549 -21604.279583    -39.572448                    
V 10  17207.534191 -21051.137160   5613.170169      -.982457                    
P 11  19246.926485   2676.803778  18105.477385     23.652265                    
V 11  11045.891145  20758.325266 -14405.969465       .005466                    
P 12 -18967.668131   4349.340518  18141.158119    -56.158547                    
V 12  12376.266060 -19291.432811  17718.746589      -.012875                    
P 13  20871.706041  -6674.862387 -15099.176152    206.437845                    
V 13  18511.959545   4136.080883  23953.454524       .029601                    
P 14  -2736.182352  14387.032597  22244.257238     41.460905                    
V 14 -27670.357638  -3942.921424   -950.253016       .022936                    
P 16   4115.087386  17145.911247 -19739.790593    175.639185                    
V 16 -16360.859693  19292.150334  13454.801089       .022404                    
P 17   4679.242130 -14682.370868  21641.250579     54.672202                    
V 17  27196.689446   3734.214172  -3484.459157      -.010421                    
P 18 -17633.035106  19470.693881  -2107.792611   -236.140269                    
V 18   -842.179760  -4404.499777 -31626.104010       .017882                    
P 19  25241.480165   7466.505832  -3984.228372     65.227432                    
V 19  -5569.910766   1779.894442 -31064.143517       .025142                    
P 20  19703.424034  -8095.089307  15743.117855    -29.615880                    
V 20 -10054.277323  17674.809569  21564.365856      -.005674                    
P 21 -10204.951070  13868.539723 -19926.357873     78.274030                    
V 21 -11017.146980 -23454.995505 -11189.917491      -.002096                    
P 22  -9263.467167  22784.037093  10129.588179    197.730000                    
V 22 -10201.385549   8019.107217 -27851.075166       .013808                    
P 23  26132.195004   -674.971683  -5425.008004    201.317173                    
V 23   6437.590211   2978.646592  30850.877469       .038728                    
P 24 -15306.798306   2245.438934 -21365.286453     30.644427                    
V 24  -9178.886182 -26089.815750   4082.876507       .029531                    
P 25  12503.290646  -8448.929982 -21500.262922    438.740641                    
V 25  13671.298689  24622.584353  -1549.471162       .100528                    
P 26 -23915.356221  -9243.722145  -8409.065777     27.890804                    
V 26   9922.710824    394.715968 -29758.425435       .134304                    
P 27   7811.419818 -14928.984705 -19828.269203    135.124155                    
V 27  13201.687673  23220.338375 -12105.900758       .024162                    
P 28  11338.402997 -22777.851371   7303.469189     -6.887298                    
V 28   7720.067834  -5270.569272 -30166.002479      -.005658                    
P 29 -21618.730725 -10295.707047 -11711.519890      5.633901                    
V 29  15057.096677    382.857094 -27281.187853       .000977                    
P 30 -18833.510476  16261.474102   8811.973806     45.711158                    
V 30   4026.756580 -11420.763613  28729.130581       .011039                    
P 31   7148.210674  25070.486176   5066.433502      9.508169                    
V 31  -4951.133476  -4594.735807  30999.097178      -.012254                    
P 32    311.017654  19158.883196  18918.099097     59.255898                    
V 32 -15991.235947  16530.107970 -16770.221711       .167419                    
EOF
